{
  "type": "FeatureCollection",
  "features": [
    {
      "type": "Feature",
      "properties": {
        "norad_id": 37927,
        "name": "FENGYUN 1C DEB",
        "group": "fengyun-1c-debris",
        "lat": -32.09197126023979,
        "lon": 133.48765909782878,
        "alt_km": 658.611672247861,
        "timestamp": "2025-12-10T09:57:44.988749+00:00",
        "meta_object_name": "FENGYUN 1C DEB",
        "meta_object_id": "1999-025EPC",
        "meta_epoch": "2025-12-08T15:40:42.564288",
        "meta_mean_motion": 14.71415555,
        "meta_eccentricity": 0.0007916,
        "meta_inclination": 98.8087,
        "meta_ra_of_asc_node": 126.0022,
        "meta_arg_of_pericenter": 283.7555,
        "meta_mean_anomaly": 76.2768,
        "meta_ephemeris_type": 0,
        "meta_classification_type": "U",
        "meta_norad_cat_id": 37927,
        "meta_element_set_no": 999,
        "meta_rev_at_epoch": 65056,
        "meta_bstar": 0.0054829,
        "meta_mean_motion_dot": 0.00034083,
        "meta_mean_motion_ddot": 0,
        "tle_line1": "1 37927U 99025EPC 25342.65327042  .00034083  00000+0  54829-2 0  9995",
        "tle_line2": "2 37927  98.8087 126.0022 0007916 283.7555  76.2768 14.71415555650567"
      },
      "geometry": {
        "type": "Point",
        "coordinates": [
          133.48765909782878,
          -32.09197126023979
        ]
      }
    },
    {
      "type": "Feature",
      "properties": {
        "norad_id": 37928,
        "name": "FENGYUN 1C DEB",
        "group": "fengyun-1c-debris",
        "lat": -15.548979370870372,
        "lon": 36.422865578672834,
        "alt_km": 820.6937271961051,
        "timestamp": "2025-12-10T09:57:44.988759+00:00",
        "meta_object_name": "FENGYUN 1C DEB",
        "meta_object_id": "1999-025EPD",
        "meta_epoch": "2025-12-05T22:06:55.639584",
        "meta_mean_motion": 14.37064476,
        "meta_eccentricity": 0.0073466,
        "meta_inclination": 98.9156,
        "meta_ra_of_asc_node": 214.2722,
        "meta_arg_of_pericenter": 52.9241,
        "meta_mean_anomaly": 307.8631,
        "meta_ephemeris_type": 0,
        "meta_classification_type": "U",
        "meta_norad_cat_id": 37928,
        "meta_element_set_no": 999,
        "meta_rev_at_epoch": 81094,
        "meta_bstar": 0.0011316154,
        "meta_mean_motion_dot": 3.419e-05,
        "meta_mean_motion_ddot": 0,
        "tle_line1": "1 37928U 99025EPD 25339.92147731  .00003419  00000+0  11316-2 0  9990",
        "tle_line2": "2 37928  98.9156 214.2722 0073466  52.9241 307.8631 14.37064476810940"
      },
      "geometry": {
        "type": "Point",
        "coordinates": [
          36.422865578672834,
          -15.548979370870372
        ]
      }
    },
    {
      "type": "Feature",
      "properties": {
        "norad_id": 38116,
        "name": "FENGYUN 1C DEB",
        "group": "fengyun-1c-debris",
        "lat": 21.82631169565509,
        "lon": 19.674298765572555,
        "alt_km": 869.219499803231,
        "timestamp": "2025-12-10T09:57:44.988769+00:00",
        "meta_object_name": "FENGYUN 1C DEB",
        "meta_object_id": "1999-025EPM",
        "meta_epoch": "2025-12-08T08:47:29.846688",
        "meta_mean_motion": 14.17004131,
        "meta_eccentricity": 0.00723814,
        "meta_inclination": 98.7133,
        "meta_ra_of_asc_node": 21.1884,
        "meta_arg_of_pericenter": 159.0546,
        "meta_mean_anomaly": 218.3187,
        "meta_ephemeris_type": 0,
        "meta_classification_type": "U",
        "meta_norad_cat_id": 38116,
        "meta_element_set_no": 999,
        "meta_rev_at_epoch": 64423,
        "meta_bstar": 0.00087094708,
        "meta_mean_motion_dot": 1.753e-05,
        "meta_mean_motion_ddot": 0,
        "tle_line1": "1 38116U 99025EPM 25342.36631767  .00001753  00000+0  87095-3 0  9996",
        "tle_line2": "2 38116  98.7133  21.1884 0072381 159.0546 218.3187 14.17004131644238"
      },
      "geometry": {
        "type": "Point",
        "coordinates": [
          19.674298765572555,
          21.82631169565509
        ]
      }
    },
    {
      "type": "Feature",
      "properties": {
        "norad_id": 38121,
        "name": "FENGYUN 1C DEB",
        "group": "fengyun-1c-debris",
        "lat": -74.38041105876727,
        "lon": -79.23807885586508,
        "alt_km": 905.7939407779022,
        "timestamp": "2025-12-10T09:57:44.988779+00:00",
        "meta_object_name": "FENGYUN 1C DEB",
        "meta_object_id": "1999-025EPS",
        "meta_epoch": "2025-12-10T03:42:23.558112",
        "meta_mean_motion": 14.21745346,
        "meta_eccentricity": 0.0207137,
        "meta_inclination": 99.1157,
        "meta_ra_of_asc_node": 135.5428,
        "meta_arg_of_pericenter": 134.9598,
        "meta_mean_anomaly": 226.8584,
        "meta_ephemeris_type": 0,
        "meta_classification_type": "U",
        "meta_norad_cat_id": 38121,
        "meta_element_set_no": 999,
        "meta_rev_at_epoch": 83883,
        "meta_bstar": 0.0016825,
        "meta_mean_motion_dot": 4.556e-05,
        "meta_mean_motion_ddot": 0,
        "tle_line1": "1 38121U 99025EPS 25344.15443933  .00004556  00000+0  16825-2 0  9993",
        "tle_line2": "2 38121  99.1157 135.5428 0207137 134.9598 226.8584 14.21745346838838"
      },
      "geometry": {
        "type": "Point",
        "coordinates": [
          -79.23807885586508,
          -74.38041105876727
        ]
      }
    },
    {
      "type": "Feature",
      "properties": {
        "norad_id": 38122,
        "name": "FENGYUN 1C DEB",
        "group": "fengyun-1c-debris",
        "lat": 14.771720533621217,
        "lon": -15.30809196740547,
        "alt_km": 888.5965907206528,
        "timestamp": "2025-12-10T09:57:44.988789+00:00",
        "meta_object_name": "FENGYUN 1C DEB",
        "meta_object_id": "1999-025EPT",
        "meta_epoch": "2025-12-08T17:56:21.579072",
        "meta_mean_motion": 14.42629891,
        "meta_eccentricity": 0.02276377,
        "meta_inclination": 98.3144,
        "meta_ra_of_asc_node": 345.2742,
        "meta_arg_of_pericenter": 168.9943,
        "meta_mean_anomaly": 191.635,
        "meta_ephemeris_type": 0,
        "meta_classification_type": "U",
        "meta_norad_cat_id": 38122,
        "meta_element_set_no": 999,
        "meta_rev_at_epoch": 67681,
        "meta_bstar": 0.00073738447,
        "meta_mean_motion_dot": 3.3e-05,
        "meta_mean_motion_ddot": 0,
        "tle_line1": "1 38122U 99025EPT 25342.74747198  .00003300  00000+0  73738-3 0  9990",
        "tle_line2": "2 38122  98.3144 345.2742 0227637 168.9943 191.6350 14.42629891676810"
      },
      "geometry": {
        "type": "Point",
        "coordinates": [
          -15.30809196740547,
          14.771720533621217
        ]
      }
    },
    {
      "type": "Feature",
      "properties": {
        "norad_id": 38124,
        "name": "FENGYUN 1C DEB",
        "group": "fengyun-1c-debris",
        "lat": 78.75372065078432,
        "lon": -106.09679725686368,
        "alt_km": 1263.3991682574042,
        "timestamp": "2025-12-10T09:57:44.988799+00:00",
        "meta_object_name": "FENGYUN 1C DEB",
        "meta_object_id": "1999-025EPV",
        "meta_epoch": "2025-11-17T02:51:17.993664",
        "meta_mean_motion": 13.40908773,
        "meta_eccentricity": 0.03570409,
        "meta_inclination": 97.805,
        "meta_ra_of_asc_node": 279.4801,
        "meta_arg_of_pericenter": 12.4947,
        "meta_mean_anomaly": 348.4759,
        "meta_ephemeris_type": 0,
        "meta_classification_type": "U",
        "meta_norad_cat_id": 38124,
        "meta_element_set_no": 999,
        "meta_rev_at_epoch": 54238,
        "meta_bstar": 0.00079426358,
        "meta_mean_motion_dot": 6.08e-06,
        "meta_mean_motion_ddot": 0,
        "tle_line1": "1 38124U 99025EPV 25321.11895826  .00000608  00000+0  79426-3 0  9990",
        "tle_line2": "2 38124  97.8050 279.4801 0357040  12.4947 348.4759 13.40908773542380"
      },
      "geometry": {
        "type": "Point",
        "coordinates": [
          -106.09679725686368,
          78.75372065078432
        ]
      }
    },
    {
      "type": "Feature",
      "properties": {
        "norad_id": 38130,
        "name": "FENGYUN 1C DEB",
        "group": "fengyun-1c-debris",
        "lat": -13.469767441370124,
        "lon": -145.74029383937406,
        "alt_km": 855.5273211312742,
        "timestamp": "2025-12-10T09:57:44.988809+00:00",
        "meta_object_name": "FENGYUN 1C DEB",
        "meta_object_id": "1999-025EQB",
        "meta_epoch": "2025-11-28T09:19:02.490528",
        "meta_mean_motion": 13.7720595,
        "meta_eccentricity": 0.02085156,
        "meta_inclination": 98.6035,
        "meta_ra_of_asc_node": 25.4413,
        "meta_arg_of_pericenter": 263.5047,
        "meta_mean_anomaly": 94.2329,
        "meta_ephemeris_type": 0,
        "meta_classification_type": "U",
        "meta_norad_cat_id": 38130,
        "meta_element_set_no": 999,
        "meta_rev_at_epoch": 69085,
        "meta_bstar": 0.0016964005,
        "meta_mean_motion_dot": 1.933e-05,
        "meta_mean_motion_ddot": 0,
        "tle_line1": "1 38130U 99025EQB 25332.38822327  .00001933  00000+0  16964-2 0  9993",
        "tle_line2": "2 38130  98.6035  25.4413 0208515 263.5047  94.2329 13.77205950690851"
      },
      "geometry": {
        "type": "Point",
        "coordinates": [
          -145.74029383937406,
          -13.469767441370124
        ]
      }
    }
  ]
}